  // Sample data
  const sampleData: Record<string, object> = {
    OMM: {
      OBJECT_NAME: "ISS (ZARYA)",
      OBJECT_ID: "1998-067A",
      CENTER_NAME: "EARTH",
      REF_FRAME: "TEME",
      TIME_SYSTEM: "UTC",
      MEAN_ELEMENT_THEORY: "SGP4",
      EPOCH: "2024-06-22T16:56:20.014080Z",
      MEAN_MOTION: 15.50094987,
      ECCENTRICITY: 0.0003571,
      INCLINATION: 51.6401,
      RA_OF_ASC_NODE: 247.4627,
      ARG_OF_PERICENTER: 130.5360,
      MEAN_ANOMALY: 325.0288,
      EPHEMERIS_TYPE: 0,
      CLASSIFICATION_TYPE: "U",
      NORAD_CAT_ID: 25544,
      ELEMENT_SET_NO: 999,
      REV_AT_EPOCH: 48587,
      BSTAR: 0.00034196,
      MEAN_MOTION_DOT: 0.00019817,
      MEAN_MOTION_DDOT: 0
    },
    // OEM - Orbit Ephemeris Message (Compact Row-Major Format)
    // ISS orbit: 120 points propagated using Keplerian mechanics
    // ~424km altitude, 51.6° inclination, ~92.68 min period
    OEM: {
      OBJECT_NAME: "ISS (ZARYA)",
      OBJECT_ID: "1998-067A",
      CENTER_NAME: "EARTH",
      REF_FRAME: "EME2000",
      TIME_SYSTEM: "UTC",
      START_TIME: "2024-06-22T00:00:00.000Z",
      STOP_TIME: "2024-06-22T01:32:40.000Z",
      STEP_SIZE: 46.34,
      STATE_VECTOR_SIZE: 6,
      EPHEMERIS_DATA: [
        4650.866, 2849.401, 4047.689, -0.622, 6.563, -3.905,
        4615.614, 3149.979, 3860.985, -0.896, 6.386, -4.138,
        4567.716, 3441.928, 3663.702, -1.167, 6.191, -4.360,
        4507.302, 3724.447, 3456.380, -1.435, 5.979, -4.571,
        4434.537, 3996.762, 3239.586, -1.699, 5.751, -4.768,
        4349.622, 4258.129, 3013.914, -1.959, 5.508, -4.953,
        4252.788, 4507.831, 2779.981, -2.213, 5.249, -5.124,
        4144.299, 4745.184, 2538.429, -2.461, 4.976, -5.281,
        4024.454, 4969.539, 2289.918, -2.702, 4.689, -5.424,
        3893.580, 5180.280, 2035.129, -2.936, 4.389, -5.552,
        3752.035, 5376.830, 1774.759, -3.161, 4.077, -5.664,
        3600.206, 5558.651, 1509.522, -3.379, 3.754, -5.761,
        3438.509, 5725.244, 1240.142, -3.586, 3.421, -5.842,
        3267.387, 5876.152, 967.359, -3.784, 3.079, -5.907,
        3087.307, 6010.963, 691.918, -3.972, 2.728, -5.956,
        2898.763, 6129.305, 414.574, -4.149, 2.369, -5.989,
        2702.270, 6230.854, 136.087, -4.314, 2.004, -6.005,
        2498.367, 6315.332, -142.780, -4.468, 1.634, -6.005,
        2287.611, 6382.506, -421.265, -4.609, 1.259, -5.988,
        2070.580, 6432.191, -698.604, -4.738, 0.881, -5.955,
        1847.868, 6464.251, -974.036, -4.853, 0.500, -5.906,
        1620.085, 6478.596, -1246.809, -4.956, 0.118, -5.840,
        1387.854, 6475.187, -1516.173, -5.045, -0.265, -5.759,
        1151.812, 6454.033, -1781.391, -5.119, -0.646, -5.661,
        912.605, 6415.189, -2041.737, -5.180, -1.026, -5.549,
        670.888, 6358.763, -2296.496, -5.227, -1.403, -5.421,
        427.324, 6284.906, -2544.970, -5.260, -1.777, -5.278,
        182.579, 6193.822, -2786.478, -5.278, -2.145, -5.120,
        -62.675, 6085.757, -3020.358, -5.281, -2.507, -4.949,
        -307.766, 5961.009, -3245.968, -5.270, -2.863, -4.764,
        -552.023, 5819.917, -3462.690, -5.245, -3.211, -4.566,
        -794.775, 5662.867, -3669.928, -5.205, -3.550, -4.355,
        -1035.359, 5490.290, -3867.115, -5.151, -3.879, -4.133,
        -1273.113, 5302.657, -4053.709, -5.083, -4.198, -3.899,
        -1507.386, 5100.481, -4229.198, -5.001, -4.505, -3.655,
        -1737.536, 4884.317, -4393.101, -4.905, -4.799, -3.400,
        -1962.931, 4654.756, -4544.966, -4.796, -5.081, -3.136,
        -2182.953, 4412.427, -4684.379, -4.673, -5.349, -2.864,
        -2396.999, 4157.993, -4810.955, -4.538, -5.601, -2.584,
        -2604.481, 3892.152, -4924.346, -4.391, -5.839, -2.296,
        -2804.830, 3615.632, -5024.241, -4.231, -6.061, -2.003,
        -2997.496, 3329.191, -5110.366, -4.060, -6.266, -1.704,
        -3181.950, 3033.615, -5182.484, -3.877, -6.453, -1.400,
        -3357.687, 2729.712, -5240.396, -3.684, -6.623, -1.092,
        -3524.223, 2418.317, -5283.942, -3.481, -6.775, -0.782,
        -3681.102, 2100.283, -5313.003, -3.269, -6.909, -0.469,
        -3827.893, 1776.482, -5327.499, -3.047, -7.023, -0.155,
        -3964.192, 1447.803, -5327.388, -2.817, -7.118, 0.160,
        -4089.626, 1115.147, -5312.671, -2.579, -7.194, 0.474,
        -4203.850, 779.426, -5283.388, -2.335, -7.250, 0.786,
        -4306.550, 441.561, -5239.618, -2.084, -7.286, 1.097,
        -4397.444, 102.478, -5181.482, -1.827, -7.302, 1.404,
        -4476.283, -236.890, -5109.138, -1.565, -7.298, 1.708,
        -4542.850, -575.615, -5022.784, -1.299, -7.274, 2.007,
        -4596.962, -912.765, -4922.657, -1.029, -7.230, 2.300,
        -4638.470, -1247.417, -4809.032, -0.757, -7.166, 2.588,
        -4667.260, -1578.652, -4682.220, -0.482, -7.083, 2.868,
        -4683.254, -1905.561, -4542.569, -0.206, -6.980, 3.140,
        -4686.407, -2227.247, -4390.462, 0.070, -6.858, 3.403,
        -4676.709, -2542.828, -4226.315, 0.347, -6.717, 3.658,
        -4654.189, -2851.436, -4050.581, 0.622, -6.558, 3.902,
        -4618.908, -3152.227, -3863.740, 0.896, -6.381, 4.135,
        -4570.961, -3444.373, -3666.305, 1.167, -6.186, 4.358,
        -4510.482, -3727.075, -3458.819, 1.435, -5.975, 4.568,
        -4437.636, -3999.555, -3241.850, 1.699, -5.747, 4.766,
        -4352.624, -4261.067, -3015.994, 1.958, -5.503, 4.950,
        -4255.677, -4510.894, -2781.870, 2.212, -5.244, 5.121,
        -4147.064, -4748.349, -2540.122, 2.460, -4.971, 5.278,
        -4027.081, -4972.782, -2291.413, 2.701, -4.684, 5.421,
        -3896.059, -5183.577, -2036.425, 2.935, -4.384, 5.549,
        -3754.356, -5380.157, -1775.857, 3.161, -4.073, 5.661,
        -3602.363, -5561.981, -1510.426, 3.378, -3.750, 5.758,
        -3440.497, -5728.553, -1240.859, 3.586, -3.417, 5.839,
        -3269.201, -5879.415, -967.896, 3.784, -3.074, 5.905,
        -3088.946, -6014.154, -692.285, 3.972, -2.723, 5.954,
        -2900.227, -6132.401, -414.784, 4.148, -2.365, 5.986,
        -2703.562, -6233.833, -136.152, 4.314, -2.000, 6.002,
        -2499.490, -6318.171, 142.845, 4.467, -1.629, 6.002,
        -2288.572, -6385.185, 421.442, 4.609, -1.254, 5.986,
        -2071.386, -6434.693, 698.875, 4.737, -0.876, 5.953,
        -1848.528, -6466.559, 974.384, 4.853, -0.495, 5.903,
        -1620.610, -6480.697, 1247.213, 4.955, -0.113, 5.838,
        -1388.257, -6477.069, 1516.613, 5.044, 0.269, 5.756,
        -1152.107, -6455.685, 1781.847, 5.119, 0.651, 5.659,
        -912.806, -6416.605, 2042.188, 5.180, 1.031, 5.546,
        -671.012, -6359.938, 2296.921, 5.227, 1.408, 5.418,
        -427.387, -6285.840, 2545.348, 5.259, 1.781, 5.275,
        -182.600, -6194.514, 2786.790, 5.277, 2.150, 5.117,
        62.679, -6086.212, 3020.584, 5.281, 2.512, 4.946,
        307.777, -5961.232, 3246.090, 5.270, 2.868, 4.761,
        552.023, -5819.917, 3462.690, 5.244, 3.216, 4.563,
        794.746, -5662.656, 3669.791, 5.205, 3.554, 4.352,
        1035.281, -5489.880, 3866.826, 5.151, 3.884, 4.130,
        1272.971, -5302.064, 4053.256, 5.082, 4.202, 3.896,
        1507.162, -5099.724, 4228.570, 5.000, 4.509, 3.652,
        1737.215, -4883.414, 4392.289, 4.905, 4.804, 3.397,
        1962.498, -4653.729, 4543.964, 4.795, 5.086, 3.133,
        2182.395, -4411.297, 4683.180, 4.673, 5.353, 2.861,
        2396.303, -4156.785, 4809.557, 4.538, 5.606, 2.581,
        2603.637, -3890.890, 4922.750, 4.390, 5.844, 2.293,
        2803.829, -3614.341, 5022.448, 4.231, 6.065, 2.000,
        2996.330, -3327.897, 5108.379, 4.059, 6.270, 1.701,
        3180.615, -3032.341, 5180.309, 3.877, 6.458, 1.397,
        3356.178, -2728.485, 5238.041, 3.684, 6.628, 1.089,
        3522.539, -2417.162, 5281.418, 3.481, 6.780, 0.779,
        3679.243, -2099.223, 5310.321, 3.268, 6.913, 0.466,
        3825.861, -1775.540, 5324.672, 3.047, 7.028, 0.152,
        3961.992, -1447.000, 5324.432, 2.817, 7.123, -0.162,
        4087.263, -1114.503, 5309.602, 2.579, 7.199, -0.476,
        4201.332, -778.959, 5280.224, 2.334, 7.255, -0.789,
        4303.887, -441.287, 5236.379, 2.083, 7.291, -1.100,
        4394.647, -102.413, 5178.186, 1.826, 7.307, -1.407,
        4473.364, 236.736, 5105.805, 1.564, 7.303, -1.711,
        4539.822, 575.231, 5019.436, 1.298, 7.279, -2.010,
        4593.840, 912.146, 4919.315, 1.029, 7.235, -2.303,
        4635.271, 1246.557, 4805.716, 0.756, 7.171, -2.590,
        4664.001, 1577.550, 4678.950, 0.482, 7.088, -2.870,
        4679.952, 1904.217, 4539.366, 0.206, 6.985, -3.143,
        4683.079, 2225.666, 4387.344, -0.071, 6.863, -3.406,
        4673.375, 2541.015, 4223.302, -0.347, 6.722, -3.661
      ]
    },
    CDM: {
      MESSAGE_ID: "CDM-2024-001",
      CREATION_DATE: "2024-06-22T12:00:00.000Z",
      ORIGINATOR: "JSPOC",
      TCA: "2024-06-23T08:30:45.000Z",
      MISS_DISTANCE: 0.125,
      COLLISION_PROBABILITY: 0.000234,
      OBJECT1: {
        OBJECT_DESIGNATOR: "25544",
        OBJECT_NAME: "ISS (ZARYA)",
        INTERNATIONAL_DESIGNATOR: "1998-067A",
        CATALOG_NAME: "SATCAT",
        OBJECT_TYPE: "PAYLOAD",
        OPERATOR_CONTACT_POSITION: "NASA",
        X: 6678.137,
        Y: 0.0,
        Z: 0.0,
        X_DOT: 0.0,
        Y_DOT: 7.725,
        Z_DOT: 0.0
      },
      OBJECT2: {
        OBJECT_DESIGNATOR: "99999",
        OBJECT_NAME: "DEBRIS",
        INTERNATIONAL_DESIGNATOR: "2019-999A",
        CATALOG_NAME: "SATCAT",
        OBJECT_TYPE: "DEBRIS",
        X: 6678.200,
        Y: 0.100,
        Z: 0.050,
        X_DOT: 0.0,
        Y_DOT: 7.720,
        Z_DOT: 0.002
      }
    },
    EPM: {
      ENTITY_ID: "ORG-001",
      ENTITY_NAME: "SpaceX",
      ENTITY_TYPE: "OPERATOR",
      COUNTRY: "USA",
      CONTACT_EMAIL: "operations@spacex.com",
      CONTACT_PHONE: "+1-310-363-6000",
      LOCATION: {
        LATITUDE: 28.5620,
        LONGITUDE: -80.5772,
        ALTITUDE: 0.003
      },
      DESCRIPTION: "Commercial space transportation company",
      CAPABILITIES: ["LAUNCH", "SPACECRAFT_OPERATIONS", "CONSTELLATION_MANAGEMENT"],
      ACTIVE_ASSETS: 5000,
      REGISTRATION_DATE: "2002-05-06T00:00:00.000Z"
    },
    // SIT - Site Information Message
    // Sample showing multiple ground sites around the world
    SIT: {
      SITES: [
        {
          ID: "GS-001",
          NAME: "Kennedy Space Center",
          ABBREVIATION: "KSC",
          SITE_TYPE: "LAUNCH_SITE",
          NETWORK: "NASA",
          LATITUDE: 28.5721,
          LONGITUDE: -80.6480,
          ALTITUDE: 0.003,
          CTR_ID: "USA",
          DESCRIPTION: "Primary NASA launch facility",
          OPERATIONAL_STATUS: "active"
        },
        {
          ID: "GS-002",
          NAME: "Goldstone DSN",
          ABBREVIATION: "GDSCC",
          SITE_TYPE: "SATELLITE_GROUND_STATION",
          NETWORK: "DSN",
          LATITUDE: 35.4267,
          LONGITUDE: -116.8900,
          ALTITUDE: 0.951,
          CTR_ID: "USA",
          DESCRIPTION: "Deep Space Network complex",
          OPERATIONAL_STATUS: "active"
        },
        {
          ID: "GS-003",
          NAME: "Canberra DSN",
          ABBREVIATION: "CDSCC",
          SITE_TYPE: "SATELLITE_GROUND_STATION",
          NETWORK: "DSN",
          LATITUDE: -35.4014,
          LONGITUDE: 148.9817,
          ALTITUDE: 0.680,
          CTR_ID: "AUS",
          DESCRIPTION: "Deep Space Network complex",
          OPERATIONAL_STATUS: "active"
        },
        {
          ID: "GS-004",
          NAME: "Madrid DSN",
          ABBREVIATION: "MDSCC",
          SITE_TYPE: "SATELLITE_GROUND_STATION",
          NETWORK: "DSN",
          LATITUDE: 40.4314,
          LONGITUDE: -4.2481,
          ALTITUDE: 0.830,
          CTR_ID: "ESP",
          DESCRIPTION: "Deep Space Network complex",
          OPERATIONAL_STATUS: "active"
        },
        {
          ID: "GS-005",
          NAME: "Baikonur Cosmodrome",
          ABBREVIATION: "BKNR",
          SITE_TYPE: "SPACEPORT",
          NETWORK: "ROSCOSMOS",
          LATITUDE: 45.9650,
          LONGITUDE: 63.3050,
          ALTITUDE: 0.090,
          CTR_ID: "KAZ",
          DESCRIPTION: "Russian space launch facility",
          OPERATIONAL_STATUS: "active"
        },
        {
          ID: "GS-006",
          NAME: "Vandenberg SFB",
          ABBREVIATION: "VSFB",
          SITE_TYPE: "LAUNCH_SITE",
          NETWORK: "USSF",
          LATITUDE: 34.7420,
          LONGITUDE: -120.5724,
          ALTITUDE: 0.112,
          CTR_ID: "USA",
          DESCRIPTION: "US Space Force west coast launch site",
          OPERATIONAL_STATUS: "active"
        }
      ]
    },
    // LDM - Launch Data Message
    // Sample SpaceX Falcon 9 launch from KSC
    LDM: {
      SITE: {
        ID: "LC-39A",
        NAME: "Launch Complex 39A",
        ABBREVIATION: "LC-39A",
        SITE_TYPE: "LAUNCH_SITE",
        NETWORK: "SpaceX",
        LATITUDE: 28.6084,
        LONGITUDE: -80.6043,
        ALTITUDE: 0.005,
        CTR_ID: "USA",
        DESCRIPTION: "Historic Apollo/Shuttle pad, now SpaceX",
        OPERATIONAL_STATUS: "active"
      },
      AZIMUTH: 35.0,
      AGENCY_NAME: "SpaceX",
      NET: "2024-06-22T14:30:00.000Z",
      MISSION_NAME: "Starlink Group 6-58",
      MISSION_DESCRIPTION: "Deployment of 23 Starlink satellites",
      MISSION_TYPE: "SATELLITE_DEPLOYMENT",
      ORBIT_TYPE: "LEO",
      LAUNCH_STATUS: "SCHEDULED",
      ROCKET_CONFIGURATION: {
        NAME: "Falcon 9",
        FAMILY: "Falcon",
        VARIANT: "Block 5"
      }
    },
    // TDM - Tracking Data Message
    // Sample tracking observation from Goldstone to ISS
    TDM: {
      OBSERVER_ID: "GDSCC-DSS14",
      OBSERVER_X: -2353.621,
      OBSERVER_Y: -4641.342,
      OBSERVER_Z: 3677.052,
      OBSERVER_VX: 0.0,
      OBSERVER_VY: 0.0,
      OBSERVER_VZ: 0.0,
      OBSERVER_POSITION_REFERENCE_FRAME: "ECEF",
      CCSDS_TDM_VERS: "2.0",
      CREATION_DATE: "2024-06-22T12:00:00.000Z",
      ORIGINATOR: "NASA/JPL",
      TIME_SYSTEM: "UTC",
      START_TIME: "2024-06-22T12:00:00.000Z",
      STOP_TIME: "2024-06-22T12:10:00.000Z",
      PARTICIPANT_1: "GDSCC-DSS14",
      PARTICIPANT_2: "ISS (ZARYA)",
      ANGLE_TYPE: "AZEL",
      OBSERVATION_STEP_SIZE: 10.0,
      OBSERVATION_START_TIME: "2024-06-22T12:00:00.000Z",
      ANGLE_1: [45.0, 46.2, 47.5, 48.9, 50.4, 52.0],
      ANGLE_2: [25.0, 27.5, 30.2, 33.1, 36.2, 39.5],
      TARGET_POSITION: {
        X: 4650.866,
        Y: 2849.401,
        Z: 4047.689
      }
    },
    // XTC - XTCE Command & Telemetry Data Flow
    // Full end-to-end data flow: SoCal startup → AWS Ground Station → LEO satellite → back
    // Uses CCSDS XTCE (660.1-G-2) for telemetry/command definitions
    XTC: {
      SPACE_SYSTEM_NAME: "NOVA-SAT-1",
      OPERATIONS_CENTER: {
        NAME: "AstralLink Operations",
        LOCATION: "El Segundo, CA",
        LATITUDE: 33.9192,
        LONGITUDE: -118.4165
      },
      GROUND_NETWORK: {
        PROVIDER: "AWS Ground Station",
        STATIONS: [
          { ID: "aws-usw2", NAME: "AWS GS Oregon", REGION: "US-West-2", LATITUDE: 45.8491, LONGITUDE: -119.7143, ANTENNA_BAND: "S/X-Band", STATUS: "TRACKING" },
          { ID: "aws-use2", NAME: "AWS GS Ohio", REGION: "US-East-2", LATITUDE: 39.9612, LONGITUDE: -82.9988, ANTENNA_BAND: "S/X-Band", STATUS: "STANDBY" },
          { ID: "aws-eun1", NAME: "AWS GS Stockholm", REGION: "EU-North-1", LATITUDE: 59.3293, LONGITUDE: 18.0686, ANTENNA_BAND: "S/X-Band", STATUS: "STANDBY" }
        ]
      },
      SATELLITE: {
        OBJECT_NAME: "NOVA-SAT-1",
        OBJECT_ID: "2024-901A",
        NORAD_CAT_ID: 99001,
        EPOCH: "2024-06-22T16:00:00.000Z",
        MEAN_MOTION: 15.2,
        ECCENTRICITY: 0.0002,
        INCLINATION: 63.0,
        RA_OF_ASC_NODE: 210.0,
        ARG_OF_PERICENTER: 45.0,
        MEAN_ANOMALY: 300.0
      },
      TELEMETRY: {
        PARAMETER_TYPES: [
          { NAME: "voltage_t", ENCODING: "IEEE754_1985", SIZE_BITS: 32, UNIT: "V" },
          { NAME: "current_t", ENCODING: "IEEE754_1985", SIZE_BITS: 32, UNIT: "A" },
          { NAME: "temp_t", ENCODING: "IEEE754_1985", SIZE_BITS: 32, UNIT: "degC" },
          { NAME: "quat_t", ENCODING: "IEEE754_1985", SIZE_BITS: 64 },
          { NAME: "mode_t", ENCODING: "UNSIGNED", SIZE_BITS: 8, ENUM: ["OFF","SAFE","NOMINAL","SCIENCE","MANEUVER"] }
        ],
        PARAMETERS: [
          { NAME: "BATT_V", TYPE: "voltage_t", SOURCE: "TELEMETERED" },
          { NAME: "SOLAR_I", TYPE: "current_t", SOURCE: "TELEMETERED" },
          { NAME: "OBC_TEMP", TYPE: "temp_t", SOURCE: "TELEMETERED" },
          { NAME: "RW_TEMP", TYPE: "temp_t", SOURCE: "TELEMETERED" },
          { NAME: "ATT_Q1", TYPE: "quat_t", SOURCE: "TELEMETERED" },
          { NAME: "ATT_Q2", TYPE: "quat_t", SOURCE: "TELEMETERED" },
          { NAME: "ATT_Q3", TYPE: "quat_t", SOURCE: "TELEMETERED" },
          { NAME: "ATT_QC", TYPE: "quat_t", SOURCE: "TELEMETERED" },
          { NAME: "SC_MODE", TYPE: "mode_t", SOURCE: "TELEMETERED" }
        ],
        CONTAINERS: [
          { NAME: "HousekeepingPacket", APID: 1, RATE_HZ: 1.0, ENTRIES: ["BATT_V","SOLAR_I","OBC_TEMP","RW_TEMP","SC_MODE"] },
          { NAME: "AttitudePacket", APID: 2, RATE_HZ: 10.0, ENTRIES: ["ATT_Q1","ATT_Q2","ATT_Q3","ATT_QC"] }
        ]
      },
      COMMANDS: {
        META_COMMANDS: [
          { NAME: "SET_MODE", DESC: "Set spacecraft operating mode", ARGS: [{ NAME: "TARGET_MODE", TYPE: "mode_t" }], VERIFY: ["ACCEPTANCE","EXECUTION"] },
          { NAME: "REPOINT", DESC: "Slew to target attitude", ARGS: [{ NAME: "RA_DEG" },{ NAME: "DEC_DEG" }] },
          { NAME: "COLLECT_DATA", DESC: "Start science collection", ARGS: [{ NAME: "DURATION_S" },{ NAME: "SENSOR_ID" }] }
        ]
      },
      SIM_VALUES: {
        BATT_V: 28.3, SOLAR_I: 4.21, OBC_TEMP: 42.7, RW_TEMP: 38.1,
        ATT_Q1: 0.7071, ATT_Q2: 0.0012, ATT_Q3: -0.0023, ATT_QC: 0.7071,
        SC_MODE: "NOMINAL", LINK_MARGIN_DB: 8.5, RSSI_DBM: -98.4,
        BIT_RATE_KBPS: 2048, PKT_COUNT: 14582, CMD_ACCEPT: 847, CMD_REJECT: 0,
        UL_FREQ_MHZ: 2025.0, DL_FREQ_MHZ: 8200.0,
        CMD_QUEUE: ["SET_MODE SCIENCE", "REPOINT 185.2 45.8", "COLLECT_DATA 600 IMG-1"]
      }
    }
  };

